STARLINK-1255
1 15399C 20019AR  21326.16372848  .00000321  00000-0  21494-4 0  3269
2 15399  53.0535 338.0086 0001364  61.6428 229.0245 15.06395655    12
